[{"OBJECT_NAME":"STARLINK-5036","OBJECT_ID":"2022-119AH","EPOCH":"2026-03-09T22:46:18.179328","MEAN_MOTION":15.08844601,"ECCENTRICITY":0.00014809,"INCLINATION":53.2198,"RA_OF_ASC_NODE":312.9791,"ARG_OF_PERICENTER":108.3264,"MEAN_ANOMALY":251.789,"EPHEMERIS_TYPE":0,"CLASSIFICATION_TYPE":"U","NORAD_CAT_ID":53917,"ELEMENT_SET_NO":999,"REV_AT_EPOCH":19186,"BSTAR":7.4660157e-5,"MEAN_MOTION_DOT":9.01e-6,"MEAN_MOTION_DDOT":0},{"OBJECT_NAME":"METEOR 2-5 DEB","OBJECT_ID":"1979-095D","EPOCH":"2026-03-07T02:20:18.720096","MEAN_MOTION":15.07655153,"ECCENTRICITY":0.00106351,"INCLINATION":81.1653,"RA_OF_ASC_NODE":357.8549,"ARG_OF_PERICENTER":34.5561,"MEAN_ANOMALY":325.6353,"EPHEMERIS_TYPE":0,"CLASSIFICATION_TYPE":"U","NORAD_CAT_ID":28555,"ELEMENT_SET_NO":999,"REV_AT_EPOCH":23235,"BSTAR":0.011673296,"MEAN_MOTION_DOT":0.00182479,"MEAN_MOTION_DDOT":0}]
